STARLINK-35801          
1 66265U 25247A   25332.81690603  .00051787  00000+0  12944-2 0  9992
2 66265  53.1594 303.2523 0001246  84.3985 275.7162 15.39654567  5547
STARLINK-35056          
1 66266U 25247B   25332.81656781  .00046810  00000+0  11732-2 0  9997
2 66266  53.1595 303.2496 0001549  65.8525 294.2642 15.39616880  5543
STARLINK-35550          
1 66267U 25247C   25332.83336806  .00095607  00000+0  23750-2 0  9994
2 66267  53.1586 301.7486 0001036 106.1905 322.3800 15.39559197  5331
STARLINK-35069          
1 66268U 25247D   25332.81225928  .00042994  00000+0  10787-2 0  9992
2 66268  53.1598 303.2214 0001227  96.5710 263.5434 15.39621189  5542
STARLINK-34910          
1 66269U 25247E   25332.83336806  .00092024  00000+0  22871-2 0  9999
2 66269  53.1587 301.7522 0001473 103.6128 323.1685 15.39563525  5654
STARLINK-35757          
1 66270U 25247F   25332.81192374  .00047119  00000+0  11805-2 0  9999
2 66270  53.1598 303.2196 0001487 102.3498 257.7673 15.39623880  5596
STARLINK-35745          
1 66271U 25247G   25332.80761490  .00033161  00000+0  83469-3 0  9998
2 66271  53.1597 303.1909 0001199  80.8661 279.2479 15.39645630  5599
STARLINK-35741          
1 66272U 25247H   25332.80727965  .00050415  00000+0  12616-2 0  9994
2 66272  53.1595 303.1895 0001348  85.9333 274.1826 15.39630966  5596
STARLINK-35730          
1 66273U 25247J   25332.80297350  .00041937  00000+0  10527-2 0  9993
2 66273  53.1598 303.1621 0001467  82.4048 277.7124 15.39617521  5596
STARLINK-35760          
1 66274U 25247K   25332.80263727  .00032115  00000+0  80945-3 0  9995
2 66274  53.1596 303.1599 0001549  73.9898 286.1278 15.39620396  5541
STARLINK-35752          
1 66275U 25247L   25332.79832888  .00071078  00000+0  17693-2 0  9994
2 66275  53.1590 303.1318 0001372  89.9853 270.1309 15.39639506  5548
STARLINK-35742          
1 66276U 25247M   25332.79799250  .00066437  00000+0  16551-2 0  9995
2 66276  53.1591 303.1297 0001412  90.3017 269.8149 15.39645608  5591
