CCSDS_OMM_VERS = 2.0
CREATION_DATE  = 
ORIGINATOR     = 

OBJECT_NAME    = STARLINK-35801
OBJECT_ID      = 2025-247A
CENTER_NAME    = EARTH
REF_FRAME      = TEME
TIME_SYSTEM    = UTC
MEAN_ELEMENT_THEORY = SGP/SGP4

EPOCH          = 2025-11-28T19:36:20.680992
MEAN_MOTION    = 15.39654567
ECCENTRICITY   = .0001246
INCLINATION    = 53.1594
RA_OF_ASC_NODE = 303.2523
ARG_OF_PERICENTER = 84.3985
MEAN_ANOMALY   = 275.7162

EPHEMERIS_TYPE = 0
CLASSIFICATION_TYPE = U
NORAD_CAT_ID   = 66265
ELEMENT_SET_NO = 999
REV_AT_EPOCH   = 554
BSTAR          = .12944E-2
MEAN_MOTION_DOT = .51787E-3
MEAN_MOTION_DDOT = 0

CCSDS_OMM_VERS = 2.0
CREATION_DATE  = 
ORIGINATOR     = 

OBJECT_NAME    = STARLINK-35056
OBJECT_ID      = 2025-247B
CENTER_NAME    = EARTH
REF_FRAME      = TEME
TIME_SYSTEM    = UTC
MEAN_ELEMENT_THEORY = SGP/SGP4

EPOCH          = 2025-11-28T19:35:51.458784
MEAN_MOTION    = 15.39616880
ECCENTRICITY   = .0001549
INCLINATION    = 53.1595
RA_OF_ASC_NODE = 303.2496
ARG_OF_PERICENTER = 65.8525
MEAN_ANOMALY   = 294.2642

EPHEMERIS_TYPE = 0
CLASSIFICATION_TYPE = U
NORAD_CAT_ID   = 66266
ELEMENT_SET_NO = 999
REV_AT_EPOCH   = 554
BSTAR          = .11732E-2
MEAN_MOTION_DOT = .4681E-3
MEAN_MOTION_DDOT = 0

CCSDS_OMM_VERS = 2.0
CREATION_DATE  = 
ORIGINATOR     = 

OBJECT_NAME    = STARLINK-35550
OBJECT_ID      = 2025-247C
CENTER_NAME    = EARTH
REF_FRAME      = TEME
TIME_SYSTEM    = UTC
MEAN_ELEMENT_THEORY = SGP/SGP4

EPOCH          = 2025-11-28T20:00:03.000384
MEAN_MOTION    = 15.39559197
ECCENTRICITY   = .0001036
INCLINATION    = 53.1586
RA_OF_ASC_NODE = 301.7486
ARG_OF_PERICENTER = 106.1905
MEAN_ANOMALY   = 322.3800

EPHEMERIS_TYPE = 0
CLASSIFICATION_TYPE = U
NORAD_CAT_ID   = 66267
ELEMENT_SET_NO = 999
REV_AT_EPOCH   = 533
BSTAR          = .2375E-2
MEAN_MOTION_DOT = .95607E-3
MEAN_MOTION_DDOT = 0

CCSDS_OMM_VERS = 2.0
CREATION_DATE  = 
ORIGINATOR     = 

OBJECT_NAME    = STARLINK-35069
OBJECT_ID      = 2025-247D
CENTER_NAME    = EARTH
REF_FRAME      = TEME
TIME_SYSTEM    = UTC
MEAN_ELEMENT_THEORY = SGP/SGP4

EPOCH          = 2025-11-28T19:29:39.201792
MEAN_MOTION    = 15.39621189
ECCENTRICITY   = .0001227
INCLINATION    = 53.1598
RA_OF_ASC_NODE = 303.2214
ARG_OF_PERICENTER = 96.5710
MEAN_ANOMALY   = 263.5434

EPHEMERIS_TYPE = 0
CLASSIFICATION_TYPE = U
NORAD_CAT_ID   = 66268
ELEMENT_SET_NO = 999
REV_AT_EPOCH   = 554
BSTAR          = .10787E-2
MEAN_MOTION_DOT = .42994E-3
MEAN_MOTION_DDOT = 0

CCSDS_OMM_VERS = 2.0
CREATION_DATE  = 
ORIGINATOR     = 

OBJECT_NAME    = STARLINK-34910
OBJECT_ID      = 2025-247E
CENTER_NAME    = EARTH
REF_FRAME      = TEME
TIME_SYSTEM    = UTC
MEAN_ELEMENT_THEORY = SGP/SGP4

EPOCH          = 2025-11-28T20:00:03.000384
MEAN_MOTION    = 15.39563525
ECCENTRICITY   = .0001473
INCLINATION    = 53.1587
RA_OF_ASC_NODE = 301.7522
ARG_OF_PERICENTER = 103.6128
MEAN_ANOMALY   = 323.1685

EPHEMERIS_TYPE = 0
CLASSIFICATION_TYPE = U
NORAD_CAT_ID   = 66269
ELEMENT_SET_NO = 999
REV_AT_EPOCH   = 565
BSTAR          = .22871E-2
MEAN_MOTION_DOT = .92024E-3
MEAN_MOTION_DDOT = 0

CCSDS_OMM_VERS = 2.0
CREATION_DATE  = 
ORIGINATOR     = 

OBJECT_NAME    = STARLINK-35757
OBJECT_ID      = 2025-247F
CENTER_NAME    = EARTH
REF_FRAME      = TEME
TIME_SYSTEM    = UTC
MEAN_ELEMENT_THEORY = SGP/SGP4

EPOCH          = 2025-11-28T19:29:10.211136
MEAN_MOTION    = 15.39623880
ECCENTRICITY   = .0001487
INCLINATION    = 53.1598
RA_OF_ASC_NODE = 303.2196
ARG_OF_PERICENTER = 102.3498
MEAN_ANOMALY   = 257.7673

EPHEMERIS_TYPE = 0
CLASSIFICATION_TYPE = U
NORAD_CAT_ID   = 66270
ELEMENT_SET_NO = 999
REV_AT_EPOCH   = 559
BSTAR          = .11805E-2
MEAN_MOTION_DOT = .47119E-3
MEAN_MOTION_DDOT = 0

CCSDS_OMM_VERS = 2.0
CREATION_DATE  = 
ORIGINATOR     = 

OBJECT_NAME    = STARLINK-35745
OBJECT_ID      = 2025-247G
CENTER_NAME    = EARTH
REF_FRAME      = TEME
TIME_SYSTEM    = UTC
MEAN_ELEMENT_THEORY = SGP/SGP4

EPOCH          = 2025-11-28T19:22:57.927360
MEAN_MOTION    = 15.39645630
ECCENTRICITY   = .0001199
INCLINATION    = 53.1597
RA_OF_ASC_NODE = 303.1909
ARG_OF_PERICENTER = 80.8661
MEAN_ANOMALY   = 279.2479

EPHEMERIS_TYPE = 0
CLASSIFICATION_TYPE = U
NORAD_CAT_ID   = 66271
ELEMENT_SET_NO = 999
REV_AT_EPOCH   = 559
BSTAR          = .83469E-3
MEAN_MOTION_DOT = .33161E-3
MEAN_MOTION_DDOT = 0

CCSDS_OMM_VERS = 2.0
CREATION_DATE  = 
ORIGINATOR     = 

OBJECT_NAME    = STARLINK-35741
OBJECT_ID      = 2025-247H
CENTER_NAME    = EARTH
REF_FRAME      = TEME
TIME_SYSTEM    = UTC
MEAN_ELEMENT_THEORY = SGP/SGP4

EPOCH          = 2025-11-28T19:22:28.961760
MEAN_MOTION    = 15.39630966
ECCENTRICITY   = .0001348
INCLINATION    = 53.1595
RA_OF_ASC_NODE = 303.1895
ARG_OF_PERICENTER = 85.9333
MEAN_ANOMALY   = 274.1826

EPHEMERIS_TYPE = 0
CLASSIFICATION_TYPE = U
NORAD_CAT_ID   = 66272
ELEMENT_SET_NO = 999
REV_AT_EPOCH   = 559
BSTAR          = .12616E-2
MEAN_MOTION_DOT = .50415E-3
MEAN_MOTION_DDOT = 0

CCSDS_OMM_VERS = 2.0
CREATION_DATE  = 
ORIGINATOR     = 

OBJECT_NAME    = STARLINK-35730
OBJECT_ID      = 2025-247J
CENTER_NAME    = EARTH
REF_FRAME      = TEME
TIME_SYSTEM    = UTC
MEAN_ELEMENT_THEORY = SGP/SGP4

EPOCH          = 2025-11-28T19:16:16.910400
MEAN_MOTION    = 15.39617521
ECCENTRICITY   = .0001467
INCLINATION    = 53.1598
RA_OF_ASC_NODE = 303.1621
ARG_OF_PERICENTER = 82.4048
MEAN_ANOMALY   = 277.7124

EPHEMERIS_TYPE = 0
CLASSIFICATION_TYPE = U
NORAD_CAT_ID   = 66273
ELEMENT_SET_NO = 999
REV_AT_EPOCH   = 559
BSTAR          = .10527E-2
MEAN_MOTION_DOT = .41937E-3
MEAN_MOTION_DDOT = 0

CCSDS_OMM_VERS = 2.0
CREATION_DATE  = 
ORIGINATOR     = 

OBJECT_NAME    = STARLINK-35760
OBJECT_ID      = 2025-247K
CENTER_NAME    = EARTH
REF_FRAME      = TEME
TIME_SYSTEM    = UTC
MEAN_ELEMENT_THEORY = SGP/SGP4

EPOCH          = 2025-11-28T19:15:47.860128
MEAN_MOTION    = 15.39620396
ECCENTRICITY   = .0001549
INCLINATION    = 53.1596
RA_OF_ASC_NODE = 303.1599
ARG_OF_PERICENTER = 73.9898
MEAN_ANOMALY   = 286.1278

EPHEMERIS_TYPE = 0
CLASSIFICATION_TYPE = U
NORAD_CAT_ID   = 66274
ELEMENT_SET_NO = 999
REV_AT_EPOCH   = 554
BSTAR          = .80945E-3
MEAN_MOTION_DOT = .32115E-3
MEAN_MOTION_DDOT = 0

CCSDS_OMM_VERS = 2.0
CREATION_DATE  = 
ORIGINATOR     = 

OBJECT_NAME    = STARLINK-35752
OBJECT_ID      = 2025-247L
CENTER_NAME    = EARTH
REF_FRAME      = TEME
TIME_SYSTEM    = UTC
MEAN_ELEMENT_THEORY = SGP/SGP4

EPOCH          = 2025-11-28T19:09:35.615232
MEAN_MOTION    = 15.39639506
ECCENTRICITY   = .0001372
INCLINATION    = 53.1590
RA_OF_ASC_NODE = 303.1318
ARG_OF_PERICENTER = 89.9853
MEAN_ANOMALY   = 270.1309

EPHEMERIS_TYPE = 0
CLASSIFICATION_TYPE = U
NORAD_CAT_ID   = 66275
ELEMENT_SET_NO = 999
REV_AT_EPOCH   = 554
BSTAR          = .17693E-2
MEAN_MOTION_DOT = .71078E-3
MEAN_MOTION_DDOT = 0

CCSDS_OMM_VERS = 2.0
CREATION_DATE  = 
ORIGINATOR     = 

OBJECT_NAME    = STARLINK-35742
OBJECT_ID      = 2025-247M
CENTER_NAME    = EARTH
REF_FRAME      = TEME
TIME_SYSTEM    = UTC
MEAN_ELEMENT_THEORY = SGP/SGP4

EPOCH          = 2025-11-28T19:09:06.552000
MEAN_MOTION    = 15.39645608
ECCENTRICITY   = .0001412
INCLINATION    = 53.1591
RA_OF_ASC_NODE = 303.1297
ARG_OF_PERICENTER = 90.3017
MEAN_ANOMALY   = 269.8149

EPHEMERIS_TYPE = 0
CLASSIFICATION_TYPE = U
NORAD_CAT_ID   = 66276
ELEMENT_SET_NO = 999
REV_AT_EPOCH   = 559
BSTAR          = .16551E-2
MEAN_MOTION_DOT = .66437E-3
MEAN_MOTION_DDOT = 0

